CCSDS_OMM_VERS = 2.0
CREATION_DATE  = 
ORIGINATOR     = 

OBJECT_NAME    = CZ-2C R/B
OBJECT_ID      = 2022-058K
CENTER_NAME    = EARTH
REF_FRAME      = TEME
TIME_SYSTEM    = UTC
MEAN_ELEMENT_THEORY = SGP/SGP4

EPOCH          = 2025-12-02T08:25:12.224352
MEAN_MOTION    = 15.47720143
ECCENTRICITY   = .0046657
INCLINATION    = 50.1902
RA_OF_ASC_NODE = 96.5006
ARG_OF_PERICENTER = 155.5819
MEAN_ANOMALY   = 204.7373

EPHEMERIS_TYPE = 0
CLASSIFICATION_TYPE = U
NORAD_CAT_ID   = 52794
ELEMENT_SET_NO = 999
REV_AT_EPOCH   = 19502
BSTAR          = .61675E-3
MEAN_MOTION_DOT = .33635E-3
MEAN_MOTION_DDOT = 0

CCSDS_OMM_VERS = 2.0
CREATION_DATE  = 
ORIGINATOR     = 

OBJECT_NAME    = CZ-2C R/B
OBJECT_ID      = 2022-132E
CENTER_NAME    = EARTH
REF_FRAME      = TEME
TIME_SYSTEM    = UTC
MEAN_ELEMENT_THEORY = SGP/SGP4

EPOCH          = 2025-12-02T11:58:38.067744
MEAN_MOTION    = 15.53834661
ECCENTRICITY   = .0023927
INCLINATION    = 97.2944
RA_OF_ASC_NODE = 332.5096
ARG_OF_PERICENTER = 90.3428
MEAN_ANOMALY   = 270.0568

EPHEMERIS_TYPE = 0
CLASSIFICATION_TYPE = U
NORAD_CAT_ID   = 54039
ELEMENT_SET_NO = 999
REV_AT_EPOCH   = 17524
BSTAR          = .55183E-3
MEAN_MOTION_DOT = .35906E-3
MEAN_MOTION_DDOT = 0

CCSDS_OMM_VERS = 2.0
CREATION_DATE  = 
ORIGINATOR     = 

OBJECT_NAME    = GSLV R/B
OBJECT_ID      = 2022-138AN
CENTER_NAME    = EARTH
REF_FRAME      = TEME
TIME_SYSTEM    = UTC
MEAN_ELEMENT_THEORY = SGP/SGP4

EPOCH          = 2025-12-02T08:30:41.198400
MEAN_MOTION    = 14.96043070
ECCENTRICITY   = .0023098
INCLINATION    = 87.3837
RA_OF_ASC_NODE = 198.9509
ARG_OF_PERICENTER = 139.9472
MEAN_ANOMALY   = 220.3467

EPHEMERIS_TYPE = 0
CLASSIFICATION_TYPE = U
NORAD_CAT_ID   = 54149
ELEMENT_SET_NO = 999
REV_AT_EPOCH   = 16937
BSTAR          = .32877E-3
MEAN_MOTION_DOT = .3737E-4
MEAN_MOTION_DDOT = 0

CCSDS_OMM_VERS = 2.0
CREATION_DATE  = 
ORIGINATOR     = 

OBJECT_NAME    = XRISM
OBJECT_ID      = 2023-137A
CENTER_NAME    = EARTH
REF_FRAME      = TEME
TIME_SYSTEM    = UTC
MEAN_ELEMENT_THEORY = SGP/SGP4

EPOCH          = 2025-12-02T07:49:03.212832
MEAN_MOTION    = 15.10190703
ECCENTRICITY   = .000759
INCLINATION    = 31.0003
RA_OF_ASC_NODE = 192.7765
ARG_OF_PERICENTER = 139.8971
MEAN_ANOMALY   = 220.2228

EPHEMERIS_TYPE = 0
CLASSIFICATION_TYPE = U
NORAD_CAT_ID   = 57800
ELEMENT_SET_NO = 999
REV_AT_EPOCH   = 12305
BSTAR          = .39017E-3
MEAN_MOTION_DOT = .663E-4
MEAN_MOTION_DDOT = 0

CCSDS_OMM_VERS = 2.0
CREATION_DATE  = 
ORIGINATOR     = 

OBJECT_NAME    = ACS3
OBJECT_ID      = 2024-077B
CENTER_NAME    = EARTH
REF_FRAME      = TEME
TIME_SYSTEM    = UTC
MEAN_ELEMENT_THEORY = SGP/SGP4

EPOCH          = 2025-12-02T11:54:38.324160
MEAN_MOTION    = 13.84667596
ECCENTRICITY   = .0076433
INCLINATION    = 97.2787
RA_OF_ASC_NODE = 294.3888
ARG_OF_PERICENTER = 358.7326
MEAN_ANOMALY   = 1.3630

EPHEMERIS_TYPE = 0
CLASSIFICATION_TYPE = U
NORAD_CAT_ID   = 59588
ELEMENT_SET_NO = 999
REV_AT_EPOCH   = 8072
BSTAR          = .70368E-2
MEAN_MOTION_DOT = .807E-4
MEAN_MOTION_DDOT = 0

