CZ-2C R/B               
1 52794U 22058K   25336.35083593  .00033635  00000+0  61675-3 0  9996
2 52794  50.1902  96.5006 0046657 155.5819 204.7373 15.47720143195021
CZ-2C R/B               
1 54039U 22132E   25336.49905171  .00035906  00000+0  55183-3 0  9993
2 54039  97.2944 332.5096 0023927  90.3428 270.0568 15.53834661175244
GSLV R/B                
1 54149U 22138AN  25336.35464350  .00003737  00000+0  32877-3 0  9997
2 54149  87.3837 198.9509 0023098 139.9472 220.3467 14.96043070169373
XRISM                   
1 57800U 23137A   25336.32573163  .00006630  00000+0  39017-3 0  9992
2 57800  31.0003 192.7765 0007590 139.8971 220.2228 15.10190703123051
ACS3                    
1 59588U 24077B   25336.49627690  .00008070  00000+0  70368-2 0  9997
2 59588  97.2787 294.3888 0076433 358.7326   1.3630 13.84667596 80721
